{"type": "FeatureCollection", "features": [ {"type": "Feature", "properties": {"norad_id": 34683, "name": "COSMOS 2251 DEB", "group": "cosmos-2251-debris", "lat": -49.2111034458134, "lon": 61.658933029717396, "alt_km": 689.7107073886136, "timestamp": "2025-12-18T13:51:50.080949+00:00", "meta": {"OBJECT_NAME": "COSMOS 2251 DEB", "OBJECT_ID": "1993-036YD", "EPOCH": "2025-12-18T06:02:44.044224", "MEAN_MOTION": 14.64558654, "ECCENTRICITY": 0.0017861, "INCLINATION": 74.0299, "RA_OF_ASC_NODE": 81.6688, "ARG_OF_PERICENTER": 196.8208, "MEAN_ANOMALY": 194.2528, "EPHEMERIS_TYPE": 0, "CLASSIFICATION_TYPE": "U", "NORAD_CAT_ID": 34683, "ELEMENT_SET_NO": 999, "REV_AT_EPOCH": 88429, "BSTAR": 0.0010103676, "MEAN_MOTION_DOT": 5.347e-05, "MEAN_MOTION_DDOT": 0}, "tle": {"line1": "1 34683U 93036YD  25352.25189866  .00005347  00000+0  10104-2 0  9993", "line2": "2 34683  74.0299  81.6688 0017861 196.8208 194.2528 14.64558654884291"}}, "geometry": {"type": "Point", "coordinates": [61.658933029717396, -49.2111034458134]}}, {"type": "Feature", "properties": {"norad_id": 34685, "name": "COSMOS 2251 DEB", "group": "cosmos-2251-debris", "lat": -45.74826214516596, "lon": 120.58621292170064, "alt_km": 704.027784374669, "timestamp": "2025-12-18T13:51:50.080959+00:00", "meta": {"OBJECT_NAME": "COSMOS 2251 DEB", "OBJECT_ID": "1993-036YF", "EPOCH": "2025-12-18T04:27:13.631616", "MEAN_MOTION": 14.57555214, "ECCENTRICITY": 0.00142535, "INCLINATION": 74.0286, "RA_OF_ASC_NODE": 138.4275, "ARG_OF_PERICENTER": 242.6439, "MEAN_ANOMALY": 172.5953, "EPHEMERIS_TYPE": 0, "CLASSIFICATION_TYPE": "U", "NORAD_CAT_ID": 34685, "ELEMENT_SET_NO": 999, "REV_AT_EPOCH": 88611, "BSTAR": 0.00084282437, "MEAN_MOTION_DOT": 3.813e-05, "MEAN_MOTION_DDOT": 0}, "tle": {"line1": "1 34685U 93036YF  25352.18557444  .00003813  00000+0  84282-3 0  9993", "line2": "2 34685  74.0286 138.4275 0014253 242.6439 172.5953 14.57555214886115"}}, "geometry": {"type": "Point", "coordinates": [120.58621292170064, -45.74826214516596]}}, {"type": "Feature", "properties": {"norad_id": 34689, "name": "COSMOS 2251 DEB", "group": "cosmos-2251-debris", "lat": 56.949413559177614, "lon": 7.242030539114233, "alt_km": 1028.518492600082, "timestamp": "2025-12-18T13:51:50.080969+00:00", "meta": {"OBJECT_NAME": "COSMOS 2251 DEB", "OBJECT_ID": "1993-036YK", "EPOCH": "2025-12-15T15:20:16.539648", "MEAN_MOTION": 14.04491905, "ECCENTRICITY": 0.02275051, "INCLINATION": 74.0901, "RA_OF_ASC_NODE": 218.3502, "ARG_OF_PERICENTER": 286.6099, "MEAN_ANOMALY": 101.262, "EPHEMERIS_TYPE": 0, "CLASSIFICATION_TYPE": "U", "NORAD_CAT_ID": 34689, "ELEMENT_SET_NO": 999, "REV_AT_EPOCH": 84382, "BSTAR": 0.0020174062, "MEAN_MOTION_DOT": 4.031e-05, "MEAN_MOTION_DDOT": 0}, "tle": {"line1": "1 34689U 93036YK  25349.63908032  .00004031  00000+0  20174-2 0  9998", "line2": "2 34689  74.0901 218.3502 0227505 286.6099 101.2620 14.04491905843829"}}, "geometry": {"type": "Point", "coordinates": [7.242030539114233, 56.949413559177614]}}, {"type": "Feature", "properties": {"norad_id": 34721, "name": "COSMOS 2251 DEB", "group": "cosmos-2251-debris", "lat": -6.930361727577663, "lon": -45.88695501835593, "alt_km": 929.6983165163083, "timestamp": "2025-12-18T13:51:50.080979+00:00", "meta": {"OBJECT_NAME": "COSMOS 2251 DEB", "OBJECT_ID": "1993-036YP", "EPOCH": "2025-12-16T09:23:35.751264", "MEAN_MOTION": 13.96869832, "ECCENTRICITY": 0.02234243, "INCLINATION": 73.923, "RA_OF_ASC_NODE": 319.9132, "ARG_OF_PERICENTER": 258.2136, "MEAN_ANOMALY": 262.1516, "EPHEMERIS_TYPE": 0, "CLASSIFICATION_TYPE": "U", "NORAD_CAT_ID": 34721, "ELEMENT_SET_NO": 999, "REV_AT_EPOCH": 85200, "BSTAR": 0.00097212088, "MEAN_MOTION_DOT": 1.644e-05, "MEAN_MOTION_DDOT": 0}, "tle": {"line1": "1 34721U 93036YP  25350.39138601  .00001644  00000+0  97212-3 0  9992", "line2": "2 34721  73.9230 319.9132 0223424 258.2136 262.1516 13.96869832852008"}}, "geometry": {"type": "Point", "coordinates": [-45.88695501835593, -6.930361727577663]}}, {"type": "Feature", "properties": {"norad_id": 34722, "name": "COSMOS 2251 DEB", "group": "cosmos-2251-debris", "lat": 8.73791136225194, "lon": 143.10652538616955, "alt_km": 829.8735188749124, "timestamp": "2025-12-18T13:51:50.080990+00:00", "meta": {"OBJECT_NAME": "COSMOS 2251 DEB", "OBJECT_ID": "1993-036YQ", "EPOCH": "2025-12-17T08:51:47.074176", "MEAN_MOTION": 14.11948986, "ECCENTRICITY": 0.01669112, "INCLINATION": 73.8722, "RA_OF_ASC_NODE": 327.8097, "ARG_OF_PERICENTER": 252.5525, "MEAN_ANOMALY": 260.3373, "EPHEMERIS_TYPE": 0, "CLASSIFICATION_TYPE": "U", "NORAD_CAT_ID": 34722, "ELEMENT_SET_NO": 999, "REV_AT_EPOCH": 86310, "BSTAR": 0.00067650923, "MEAN_MOTION_DOT": 1.384e-05, "MEAN_MOTION_DDOT": 0}, "tle": {"line1": "1 34722U 93036YQ  25351.36929484  .00001384  00000+0  67651-3 0  9993", "line2": "2 34722  73.8722 327.8097 0166911 252.5525 260.3373 14.11948986863108"}}, "geometry": {"type": "Point", "coordinates": [143.10652538616955, 8.73791136225194]}}, {"type": "Feature", "properties": {"norad_id": 34726, "name": "COSMOS 2251 DEB", "group": "cosmos-2251-debris", "lat": 57.11640662531033, "lon": 128.89311027188532, "alt_km": 659.4932028864205, "timestamp": "2025-12-18T13:51:50.081000+00:00", "meta": {"OBJECT_NAME": "COSMOS 2251 DEB", "OBJECT_ID": "1993-036YU", "EPOCH": "2025-12-18T03:27:05.367168", "MEAN_MOTION": 14.59502798, "ECCENTRICITY": 0.00417885, "INCLINATION": 74.0286, "RA_OF_ASC_NODE": 336.0143, "ARG_OF_PERICENTER": 125.0676, "MEAN_ANOMALY": 235.4421, "EPHEMERIS_TYPE": 0, "CLASSIFICATION_TYPE": "U", "NORAD_CAT_ID": 34726, "ELEMENT_SET_NO": 999, "REV_AT_EPOCH": 88581, "BSTAR": 0.00033519508, "MEAN_MOTION_DOT": 1.581e-05, "MEAN_MOTION_DDOT": 0}, "tle": {"line1": "1 34726U 93036YU  25352.14381212  .00001581  00000+0  33520-3 0  9992", "line2": "2 34726  74.0286 336.0143 0041788 125.0676 235.4421 14.59502798885817"}}, "geometry": {"type": "Point", "coordinates": [128.89311027188532, 57.11640662531033]}}, {"type": "Feature", "properties": {"norad_id": 34728, "name": "COSMOS 2251 DEB", "group": "cosmos-2251-debris", "lat": -52.87632115109113, "lon": 82.67233245969919, "alt_km": 692.2233014761023, "timestamp": "2025-12-18T13:51:50.081010+00:00", "meta": {"OBJECT_NAME": "COSMOS 2251 DEB", "OBJECT_ID": "1993-036YW", "EPOCH": "2025-12-18T03:00:03.805056", "MEAN_MOTION": 14.70894267, "ECCENTRICITY": 0.00413053, "INCLINATION": 74.0168, "RA_OF_ASC_NODE": 241.3015, "ARG_OF_PERICENTER": 37.4536, "MEAN_ANOMALY": 322.9501, "EPHEMERIS_TYPE": 0, "CLASSIFICATION_TYPE": "U", "NORAD_CAT_ID": 34728, "ELEMENT_SET_NO": 999, "REV_AT_EPOCH": 88879, "BSTAR": 0.00053505994, "MEAN_MOTION_DOT": 3.287e-05, "MEAN_MOTION_DDOT": 0}, "tle": {"line1": "1 34728U 93036YW  25352.12504404  .00003287  00000+0  53506-3 0  9993", "line2": "2 34728  74.0168 241.3015 0041305  37.4536 322.9501 14.70894267888799"}}, "geometry": {"type": "Point", "coordinates": [82.67233245969919, -52.87632115109113]}}, {"type": "Feature", "properties": {"norad_id": 34729, "name": "COSMOS 2251 DEB", "group": "cosmos-2251-debris", "lat": 36.23887530379433, "lon": 154.73884250779778, "alt_km": 610.7609437193842, "timestamp": "2025-12-18T13:51:50.081020+00:00", "meta": {"OBJECT_NAME": "COSMOS 2251 DEB", "OBJECT_ID": "1993-036YX", "EPOCH": "2025-12-18T02:13:11.106624", "MEAN_MOTION": 14.82945707, "ECCENTRICITY": 0.00118176, "INCLINATION": 74.0174, "RA_OF_ASC_NODE": 347.8258, "ARG_OF_PERICENTER": 103.6096, "MEAN_ANOMALY": 329.1961, "EPHEMERIS_TYPE": 0, "CLASSIFICATION_TYPE": "U", "NORAD_CAT_ID": 34729, "ELEMENT_SET_NO": 999, "REV_AT_EPOCH": 88537, "BSTAR": 0.0014572446, "MEAN_MOTION_DOT": 0.0001183, "MEAN_MOTION_DDOT": 0}, "tle": {"line1": "1 34729U 93036YX  25352.09248966  .00011830  00000+0  14572-2 0  9990", "line2": "2 34729  74.0174 347.8258 0011817 103.6096 329.1961 14.82945707885379"}}, "geometry": {"type": "Point", "coordinates": [154.73884250779778, 36.23887530379433]}}, {"type": "Feature", "properties": {"norad_id": 34732, "name": "COSMOS 2251 DEB", "group": "cosmos-2251-debris", "lat": -18.17988205983279, "lon": 76.88747795003283, "alt_km": 748.3374899493174, "timestamp": "2025-12-18T13:51:50.081031+00:00", "meta": {"OBJECT_NAME": "COSMOS 2251 DEB", "OBJECT_ID": "1993-036ZA", "EPOCH": "2025-12-17T23:50:51.472320", "MEAN_MOTION": 14.47306766, "ECCENTRICITY": 0.00403054, "INCLINATION": 74.0458, "RA_OF_ASC_NODE": 83.3688, "ARG_OF_PERICENTER": 233.4338, "MEAN_ANOMALY": 305.6643, "EPHEMERIS_TYPE": 0, "CLASSIFICATION_TYPE": "U", "NORAD_CAT_ID": 34732, "ELEMENT_SET_NO": 999, "REV_AT_EPOCH": 88219, "BSTAR": 0.00011518506, "MEAN_MOTION_DOT": 3.98e-06, "MEAN_MOTION_DDOT": 0}, "tle": {"line1": "1 34732U 93036ZA  25351.99365130  .00000398  00000+0  11519-3 0  9991", "line2": "2 34732  74.0458  83.3688 0040305 233.4338 305.6643 14.47306766882192"}}, "geometry": {"type": "Point", "coordinates": [76.88747795003283, -18.17988205983279]}}, {"type": "Feature", "properties": {"norad_id": 34736, "name": "COSMOS 2251 DEB", "group": "cosmos-2251-debris", "lat": 66.48586672780412, "lon": 162.1255813683391, "alt_km": 408.6626707768419, "timestamp": "2025-12-18T13:51:50.081041+00:00", "meta": {"OBJECT_NAME": "COSMOS 2251 DEB", "OBJECT_ID": "1993-036ZE", "EPOCH": "2025-12-18T04:07:23.689344", "MEAN_MOTION": 15.52224798, "ECCENTRICITY": 0.00156493, "INCLINATION": 73.9992, "RA_OF_ASC_NODE": 24.285, "ARG_OF_PERICENTER": 342.1701, "MEAN_ANOMALY": 17.8961, "EPHEMERIS_TYPE": 0, "CLASSIFICATION_TYPE": "U", "NORAD_CAT_ID": 34736, "ELEMENT_SET_NO": 999, "REV_AT_EPOCH": 88532, "BSTAR": 0.0072364686, "MEAN_MOTION_DOT": 0.00467795, "MEAN_MOTION_DDOT": 0}, "tle": {"line1": "1 34736U 93036ZE  25352.17180196  .00467795  00000+0  72365-2 0  9996", "line2": "2 34736  73.9992  24.2850 0015649 342.1701  17.8961 15.52224798885321"}}, "geometry": {"type": "Point", "coordinates": [162.1255813683391, 66.48586672780412]}}]}